GLOBALSTAR M057         
1 25943U 99058A   25031.25961566 -.00000043  00000+0  45557-3 0  9991
2 25943  52.0006  16.7997 0002714  96.1001 264.0158 12.24809369150150
GLOBALSTAR M059         
1 25944U 99058B   25031.56868772 -.00000075  00000+0  13777-3 0  9995
2 25944  51.9988 216.7690 0001410  81.2329 346.5189 11.99973308557641
GLOBALSTAR M056         
1 25945U 99058C   25031.30738693 -.00000108  00000+0 -23956-3 0  9994
2 25945  51.9934 222.9482 0000274  52.6833 118.5286 12.04778122146126
GLOBALSTAR M031         
1 25946U 99058D   25031.57023163  .00000017  00000+0  10912-2 0  9997
2 25946  51.9958 122.7415 0000970 224.5705 268.1946 12.16028180147926
GLOBALSTAR M039         
1 25961U 99062A   25031.49946750 -.00000030  00000+0  41138-3 0  9997
2 25961  51.9868 325.0401 0003240  48.2889 311.8254 12.62317251162952
GLOBALSTAR M034         
1 25962U 99062B   25031.35566506 -.00000061  00000+0  31603-3 0  9990
2 25962  51.9901   7.0701 0014143 142.0957   5.8726 11.79442061122241
GLOBALSTAR M029         
1 25963U 99062C   25031.58709466 -.00000051  00000+0  43670-3 0  9996
2 25963  51.9804 104.8730 0002828 194.7063 312.8204 11.99890910152721
GLOBALSTAR M061         
1 25964U 99062D   25031.35595737 -.00000116  00000+0 -58852-3 0  9997
2 25964  51.9769 189.2876 0007056  73.0725 294.7312 11.76770105105074
